{
  "links" : {
    "next" : "https://api.nasa.gov/neo/rest/v1/feed?start_date=2002-11-09&end_date=2002-11-09&detailed=true&api_key=t0TVs3DtDT2H8Oy2Zy8m2eVrNsAVKAexjcZXUckd",
    "prev" : "https://api.nasa.gov/neo/rest/v1/feed?start_date=2002-11-07&end_date=2002-11-07&detailed=true&api_key=t0TVs3DtDT2H8Oy2Zy8m2eVrNsAVKAexjcZXUckd",
    "self" : "https://api.nasa.gov/neo/rest/v1/feed?start_date=2002-11-08&end_date=2002-11-08&detailed=true&api_key=t0TVs3DtDT2H8Oy2Zy8m2eVrNsAVKAexjcZXUckd"
  },
  "element_count" : 4,
  "near_earth_objects" : {
    "2002-11-08" : [ {
      "links" : {
        "self" : "https://api.nasa.gov/neo/rest/v1/neo/2283729?api_key=t0TVs3DtDT2H8Oy2Zy8m2eVrNsAVKAexjcZXUckd"
      },
      "neo_reference_id" : "2283729",
      "name" : "283729 (2002 UX)",
      "nasa_jpl_url" : "http://ssd.jpl.nasa.gov/sbdb.cgi?sstr=2283729",
      "absolute_magnitude_h" : 17.9,
      "estimated_diameter" : {
        "kilometers" : {
          "estimated_diameter_min" : 0.6991252322,
          "estimated_diameter_max" : 1.5632915441
        },
        "meters" : {
          "estimated_diameter_min" : 699.1252322458,
          "estimated_diameter_max" : 1563.2915440869
        },
        "miles" : {
          "estimated_diameter_min" : 0.4344161447,
          "estimated_diameter_max" : 0.97138403
        },
        "feet" : {
          "estimated_diameter_min" : 2293.7180269613,
          "estimated_diameter_max" : 5128.9094295021
        }
      },
      "is_potentially_hazardous_asteroid" : false,
      "close_approach_data" : [ {
        "close_approach_date" : "2002-11-08",
        "epoch_date_close_approach" : 1036742400000,
        "relative_velocity" : {
          "kilometers_per_second" : "9.5862320907",
          "kilometers_per_hour" : "34510.4355263664",
          "miles_per_hour" : "21443.4425635914"
        },
        "miss_distance" : {
          "astronomical" : "0.415024625",
          "lunar" : "161.4445800781",
          "kilometers" : "62086804",
          "miles" : "38578952"
        },
        "orbiting_body" : "Earth"
      } ],
      "orbital_data" : {
        "orbit_id" : "63",
        "orbit_determination_date" : "2017-04-06 09:24:20",
        "orbit_uncertainty" : "0",
        "minimum_orbit_intersection" : ".350515",
        "jupiter_tisserand_invariant" : "4.517",
        "epoch_osculation" : "2458000.5",
        "eccentricity" : ".1635202833074922",
        "semi_major_axis" : "1.4734400841403",
        "inclination" : "20.20505107039967",
        "ascending_node_longitude" : "263.8736990128061",
        "orbital_period" : "653.2766680275071",
        "perihelion_distance" : "1.232502744145063",
        "perihelion_argument" : "84.33059336106187",
        "aphelion_distance" : "1.714377424135537",
        "perihelion_time" : "2457741.179531106084",
        "mean_anomaly" : "142.903264988302",
        "mean_motion" : ".5510682037473926",
        "equinox" : "J2000"
      }
    }, {
      "links" : {
        "self" : "https://api.nasa.gov/neo/rest/v1/neo/2450237?api_key=t0TVs3DtDT2H8Oy2Zy8m2eVrNsAVKAexjcZXUckd"
      },
      "neo_reference_id" : "2450237",
      "name" : "450237 (2002 XY38)",
      "nasa_jpl_url" : "http://ssd.jpl.nasa.gov/sbdb.cgi?sstr=2450237",
      "absolute_magnitude_h" : 22.9,
      "estimated_diameter" : {
        "kilometers" : {
          "estimated_diameter_min" : 0.0699125232,
          "estimated_diameter_max" : 0.1563291544
        },
        "meters" : {
          "estimated_diameter_min" : 69.9125232246,
          "estimated_diameter_max" : 156.3291544087
        },
        "miles" : {
          "estimated_diameter_min" : 0.0434416145,
          "estimated_diameter_max" : 0.097138403
        },
        "feet" : {
          "estimated_diameter_min" : 229.3718026961,
          "estimated_diameter_max" : 512.8909429502
        }
      },
      "is_potentially_hazardous_asteroid" : false,
      "close_approach_data" : [ {
        "close_approach_date" : "2002-11-08",
        "epoch_date_close_approach" : 1036742400000,
        "relative_velocity" : {
          "kilometers_per_second" : "5.4845373679",
          "kilometers_per_hour" : "19744.3345245072",
          "miles_per_hour" : "12268.3616382973"
        },
        "miss_distance" : {
          "astronomical" : "0.0473954193",
          "lunar" : "18.4368171692",
          "kilometers" : "7090254",
          "miles" : "4405679.5"
        },
        "orbiting_body" : "Earth"
      } ],
      "orbital_data" : {
        "orbit_id" : "33",
        "orbit_determination_date" : "2017-04-06 09:20:13",
        "orbit_uncertainty" : "0",
        "minimum_orbit_intersection" : ".00281993",
        "jupiter_tisserand_invariant" : "6.529",
        "epoch_osculation" : "2458000.5",
        "eccentricity" : ".2172483110675597",
        "semi_major_axis" : ".9108744930088888",
        "inclination" : "2.101259044198384",
        "ascending_node_longitude" : "159.370510036107",
        "orbital_period" : "317.5310782060682",
        "perihelion_distance" : ".7129885478081881",
        "perihelion_argument" : "119.4823338781045",
        "aphelion_distance" : "1.108760438209589",
        "perihelion_time" : "2457882.630869906710",
        "mean_anomaly" : "133.6338070380838",
        "mean_motion" : "1.133747291867824",
        "equinox" : "J2000"
      }
    }, {
      "links" : {
        "self" : "https://api.nasa.gov/neo/rest/v1/neo/3576629?api_key=t0TVs3DtDT2H8Oy2Zy8m2eVrNsAVKAexjcZXUckd"
      },
      "neo_reference_id" : "3576629",
      "name" : "(2011 QG9)",
      "nasa_jpl_url" : "http://ssd.jpl.nasa.gov/sbdb.cgi?sstr=3576629",
      "absolute_magnitude_h" : 20.3,
      "estimated_diameter" : {
        "kilometers" : {
          "estimated_diameter_min" : 0.2315021222,
          "estimated_diameter_max" : 0.5176544822
        },
        "meters" : {
          "estimated_diameter_min" : 231.5021222103,
          "estimated_diameter_max" : 517.6544821978
        },
        "miles" : {
          "estimated_diameter_min" : 0.1438487052,
          "estimated_diameter_max" : 0.3216554833
        },
        "feet" : {
          "estimated_diameter_min" : 759.5214226325,
          "estimated_diameter_max" : 1698.3415313737
        }
      },
      "is_potentially_hazardous_asteroid" : false,
      "close_approach_data" : [ {
        "close_approach_date" : "2002-11-08",
        "epoch_date_close_approach" : 1036742400000,
        "relative_velocity" : {
          "kilometers_per_second" : "11.1992239451",
          "kilometers_per_hour" : "40317.2062022329",
          "miles_per_hour" : "25051.5440427152"
        },
        "miss_distance" : {
          "astronomical" : "0.3256611489",
          "lunar" : "126.6821899414",
          "kilometers" : "48718216",
          "miles" : "30272096"
        },
        "orbiting_body" : "Earth"
      } ],
      "orbital_data" : {
        "orbit_id" : "20",
        "orbit_determination_date" : "2017-04-06 08:52:59",
        "orbit_uncertainty" : "0",
        "minimum_orbit_intersection" : ".19422",
        "jupiter_tisserand_invariant" : "3.044",
        "epoch_osculation" : "2458000.5",
        "eccentricity" : ".6035183490605425",
        "semi_major_axis" : "2.71844078681334",
        "inclination" : "11.44962927635924",
        "ascending_node_longitude" : "310.2103075990198",
        "orbital_period" : "1637.111439900836",
        "perihelion_distance" : "1.077811891136911",
        "perihelion_argument" : "73.46064263374798",
        "aphelion_distance" : "4.359069682489769",
        "perihelion_time" : "2457490.810345348594",
        "mean_anomaly" : "112.0805042359368",
        "mean_motion" : ".2198995078928812",
        "equinox" : "J2000"
      }
    }, {
      "links" : {
        "self" : "https://api.nasa.gov/neo/rest/v1/neo/3725757?api_key=t0TVs3DtDT2H8Oy2Zy8m2eVrNsAVKAexjcZXUckd"
      },
      "neo_reference_id" : "3725757",
      "name" : "(2015 PL57)",
      "nasa_jpl_url" : "http://ssd.jpl.nasa.gov/sbdb.cgi?sstr=3725757",
      "absolute_magnitude_h" : 25.7,
      "estimated_diameter" : {
        "kilometers" : {
          "estimated_diameter_min" : 0.0192555078,
          "estimated_diameter_max" : 0.0430566244
        },
        "meters" : {
          "estimated_diameter_min" : 19.2555078188,
          "estimated_diameter_max" : 43.0566244241
        },
        "miles" : {
          "estimated_diameter_min" : 0.0119648141,
          "estimated_diameter_max" : 0.0267541378
        },
        "feet" : {
          "estimated_diameter_min" : 63.1742402722,
          "estimated_diameter_max" : 141.2618956756
        }
      },
      "is_potentially_hazardous_asteroid" : false,
      "close_approach_data" : [ {
        "close_approach_date" : "2002-11-08",
        "epoch_date_close_approach" : 1036742400000,
        "relative_velocity" : {
          "kilometers_per_second" : "5.7975172314",
          "kilometers_per_hour" : "20871.0620330211",
          "miles_per_hour" : "12968.4662949069"
        },
        "miss_distance" : {
          "astronomical" : "0.2969447429",
          "lunar" : "115.511505127",
          "kilometers" : "44422300",
          "miles" : "27602738"
        },
        "orbiting_body" : "Earth"
      } ],
      "orbital_data" : {
        "orbit_id" : "12",
        "orbit_determination_date" : "2017-04-06 08:32:31",
        "orbit_uncertainty" : "4",
        "minimum_orbit_intersection" : ".00399468",
        "jupiter_tisserand_invariant" : "5.562",
        "epoch_osculation" : "2458000.5",
        "eccentricity" : ".1441121976283819",
        "semi_major_axis" : "1.120457118675057",
        "inclination" : "1.630523002184004",
        "ascending_node_longitude" : "112.6295092499175",
        "orbital_period" : "433.2028320476712",
        "perihelion_distance" : ".9589855809544297",
        "perihelion_argument" : "115.2515428571413",
        "aphelion_distance" : "1.281928656395684",
        "perihelion_time" : "2458023.013141249799",
        "mean_anomaly" : "341.2911406612505",
        "mean_motion" : ".8310194979528305",
        "equinox" : "J2000"
      }
    } ]
  }
}